58283,FLOCK 4Q-17,2023,95.03,-1.0,+,97.47,Active,0,LEO,USA,USA,Unknown,Unknown,PSLV,1 58283U 23174AD  24020.19382830  .00010487  00000+0  55920-3 0  9998,2 58283  97.4715  96.9340 0010907  34.5703 325.6236 15.15304580 11114,15.1530458,0.0010907,LEO
58284,FLOCK 4Q-26,2023,95.05,-1.0,+,97.49,Active,0,LEO,USA,USA,Unknown,Unknown,Falcon,1 58284U 23174AE  24020.19918095  .00008003  00000+0  43059-3 0  9998,2 58284  97.4782  96.9926 0011721  38.6250 321.5819 15.15060687 11115,15.15060687,0.0011721,LEO
58285,FLOCK 4Q-31,2023,95.05,-1.0,+,97.48,Active,0,LEO,USA,USA,Unknown,Unknown,Falcon,1 58285U 23174AF  24020.19908344  .00008384  00000+0  45094-3 0  9998,2 58285  97.4799  97.0050 0012183  38.2514 321.9580 15.15050830 11114,15.1505083,0.0012183,LEO
58286,FLOCK 4Q-30,2023,95.05,-1.0,+,97.48,Active,0,LEO,USA,USA,Unknown,Unknown,Falcon,1 58286U 23174AG  24020.19808612  .00008261  00000+0  44411-3 0  9992,2 58286  97.4798  97.0062 0012631  37.0086 323.2015 15.15069892 11112,15.15069892,0.0012631,LEO
58296,PELICAN-3001,2023,95.03,-1.0,+,97.48,Active,0,LEO,USA,USA,Unknown,Unknown,Unknown,1 58296U 23174AS  24020.19329652  .00012419  00000+0  66071-3 0  9991,2 58296  97.4753  96.9722 0012023  32.6744 327.5230 15.15329762 11113,15.15329762,0.0012023,LEO
58303,FLOCK 4Q-25,2023,95.01,-1.0,+,97.47,Active,0,LEO,USA,USA,Unknown,Unknown,Falcon,1 58303U 23174AZ  24020.17486781  .00010989  00000+0  57902-3 0  9998,2 58303  97.4703  96.9507 0011414  25.8367 334.3434 15.15709592 11111,15.15709592,0.0011414,LEO
58304,FLOCK 4Q-29,2023,95.02,-1.0,+,97.48,Active,0,LEO,USA,USA,Unknown,Unknown,Falcon,1 58304U 23174BA  24020.17813951  .00008388  00000+0  44537-3 0  9992,2 58304  97.4795  97.0315 0012717  27.9159 332.2753 15.15504094 11112,15.15504094,0.0012717,LEO
58306,FLOCK 4Q-22,2023,95.02,-1.0,+,97.47,Active,0,LEO,USA,USA,Unknown,Unknown,Falcon,1 58306U 23174BC  24020.17759097  .00008533  00000+0  45308-3 0  9993,2 58306  97.4714  96.9546 0011813  25.7647 334.4172 15.15504336 11111,15.15504336,0.0011813,LEO
58307,FLOCK 4Q-23,2023,95.0,-1.0,+,97.48,Active,0,LEO,USA,USA,Unknown,Unknown,Falcon,1 58307U 23174BD  24020.17186845  .00011073  00000+0  58237-3 0  9997,2 58307  97.4784  97.0333 0013388  29.0748 331.1228 15.15751437 11115,15.15751437,0.0013388,LEO
58308,FLOCK 4Q-33,2023,94.99,-1.0,+,97.47,Active,0,LEO,USA,USA,Unknown,Unknown,Falcon,1 58308U 23174BE  24020.16272281  .00010482  00000+0  54862-3 0  9990,2 58308  97.4726  96.9825 0012454  26.1213 334.0646 15.15947093 11115,15.15947093,0.0012454,LEO
58309,FLOCK 4Q-35,2023,95.01,-1.0,+,97.48,Active,0,LEO,USA,USA,Unknown,Unknown,Falcon,1 58309U 23174BF  24020.17180519  .00008988  00000+0  47484-3 0  9994,2 58309  97.4773  97.0242 0013246  31.8252 328.3778 15.15652092 11113,15.15652092,0.0013246,LEO
58310,FLOCK 4Q-32,2023,94.93,-1.0,+,97.48,Active,0,LEO,USA,USA,Unknown,Unknown,Falcon,1 58310U 23174BG  24020.15027614  .00026929  00000+0  13582-2 0  9996,2 58310  97.4786  97.0633 0012713  23.1110 337.0692 15.17036013 11111,15.17036013,0.0012713,LEO
58312,FLOCK 4Q-3,2023,94.94,-1.0,+,97.48,Active,0,LEO,USA,USA,Unknown,Unknown,PSLV,1 58312U 23174BJ  24020.47574349  .00015509  00000+0  78976-3 0  9996,2 58312  97.4784  97.3865 0012097  23.2784 336.8994 15.16823788 11163,15.16823788,0.0012097,LEO
58313,FLOCK 4Q-20,2023,95.0,-1.0,+,97.48,Active,0,LEO,USA,USA,Unknown,Unknown,PSLV,1 58313U 23174BK  24020.16791028  .00010823  00000+0  56803-3 0  9997,2 58313  97.4778  97.0308 0013370  26.5230 333.6684 15.15832072 11114,15.15832072,0.001337,LEO
58314,FLOCK 4Q-24,2023,95.01,-1.0,+,97.47,Active,0,LEO,USA,USA,Unknown,Unknown,Falcon,1 58314U 23174BL  24020.17146398  .00008678  00000+0  45898-3 0  9990,2 58314  97.4719  96.9681 0012202  23.8471 336.3325 15.15637520 11115,15.1563752,0.0012202,LEO
58316,FLOCK 4Q-34,2023,95.01,-1.0,+,97.47,Active,0,LEO,USA,USA,Unknown,Unknown,Falcon,1 58316U 23174BN  24020.16883259  .00013803  00000+0  72537-3 0  9991,2 58316  97.4732  96.9819 0012996  25.6705 334.5170 15.15729593 11115,15.15729593,0.0012996,LEO
58318,FLOCK 4Q-7,2023,95.01,-1.0,+,97.48,Active,0,LEO,USA,USA,Unknown,Unknown,PSLV,1 58318U 23174BQ  24020.16845601  .00008365  00000+0  44190-3 0  9993,2 58318  97.4783  97.0330 0013209  24.8486 335.3380 15.15678880 11112,15.1567888,0.0013209,LEO
58319,FLOCK 4Q-15,2023,95.0,-1.0,+,97.48,Active,0,LEO,USA,USA,Unknown,Unknown,PSLV,1 58319U 23174BR  24020.16475775  .00009972  00000+0  52345-3 0  9991,2 58319  97.4776  97.0319 0012814  22.7030 337.4767 15.15855541 11118,15.15855541,0.0012814,LEO
58322,FLOCK 4Q-9,2023,95.01,-1.0,+,97.47,Active,0,LEO,USA,USA,Unknown,Unknown,PSLV,1 58322U 23174BU  24020.16688582  .00008484  00000+0  44788-3 0  9996,2 58322  97.4744  96.9974 0012541  22.4470 337.7309 15.15707232 11112,15.15707232,0.0012541,LEO
58324,FLOCK 4Q-10,2023,95.01,-1.0,+,97.47,Active,0,LEO,USA,USA,Unknown,Unknown,PSLV,1 58324U 23174BW  24020.16751993  .00008431  00000+0  44512-3 0  9992,2 58324  97.4749  97.0020 0012281  20.8452 339.3279 15.15708623 11115,15.15708623,0.0012281,LEO
58327,FLOCK 4Q-4,2023,95.06,-1.0,+,97.47,Active,0,LEO,USA,USA,Unknown,Unknown,PSLV,1 58327U 23174BZ  24020.14343262  .00008489  00000+0  46009-3 0  9995,2 58327  97.4722  96.8561 0011125  41.4523 318.7551 15.14785113 11101,15.14785113,0.0011125,LEO
58328,FLOCK 4Q-13,2023,95.07,-1.0,+,97.48,Active,0,LEO,USA,USA,Unknown,Unknown,PSLV,1 58328U 23174CA  24020.21153996  .00008229  00000+0  44678-3 0  9999,2 58328  97.4789  96.9760 0012855  40.4010 319.8175 15.14713753 11114,15.14713753,0.0012855,LEO
58329,FLOCK 4Q-21,2023,95.05,-1.0,+,97.48,Active,0,LEO,USA,USA,Unknown,Unknown,Falcon,1 58329U 23174CB  24020.20341103  .00010162  00000+0  54570-3 0  9999,2 58329  97.4787  96.9885 0012144  40.2605 319.9524 15.15051176 11114,15.15051176,0.0012144,LEO
