OBJECT_NAME,OBJECT_ID,EPOCH,MEAN_MOTION,ECCENTRICITY,INCLINATION,RA_OF_ASC_NODE,ARG_OF_PERICENTER,MEAN_ANOMALY,EPHEMERIS_TYPE,CLASSIFICATION_TYPE,NORAD_CAT_ID,ELEMENT_SET_NO,REV_AT_EPOCH,BSTAR,MEAN_MOTION_DOT,MEAN_MOTION_DDOT
FLOCK 4Q-17,2023-174AD,2024-01-20T04:39:06.765120,15.15304580,.0010907,97.4715,96.9340,34.5703,325.6236,0,U,58283,999,1111,.5592E-3,.10487E-3,0
FLOCK 4Q-26,2023-174AE,2024-01-20T04:46:49.234080,15.15060687,.0011721,97.4782,96.9926,38.6250,321.5819,0,U,58284,999,1111,.43059E-3,.8003E-4,0
FLOCK 4Q-31,2023-174AF,2024-01-20T04:46:40.809216,15.15050830,.0012183,97.4799,97.0050,38.2514,321.9580,0,U,58285,999,1111,.45094E-3,.8384E-4,0
FLOCK 4Q-30,2023-174AG,2024-01-20T04:45:14.640768,15.15069892,.0012631,97.4798,97.0062,37.0086,323.2015,0,U,58286,999,1111,.44411E-3,.8261E-4,0
PELICAN-3001,2023-174AS,2024-01-20T04:38:20.819328,15.15329762,.0012023,97.4753,96.9722,32.6744,327.5230,0,U,58296,999,1111,.66071E-3,.12419E-3,0
FLOCK 4Q-25,2023-174AZ,2024-01-20T04:11:48.578784,15.15709592,.0011414,97.4703,96.9507,25.8367,334.3434,0,U,58303,999,1111,.57902E-3,.10989E-3,0
FLOCK 4Q-29,2023-174BA,2024-01-20T04:16:31.253664,15.15504094,.0012717,97.4795,97.0315,27.9159,332.2753,0,U,58304,999,1111,.44537E-3,.8388E-4,0
FLOCK 4Q-22,2023-174BC,2024-01-20T04:15:43.859808,15.15504336,.0011813,97.4714,96.9546,25.7647,334.4172,0,U,58306,999,1111,.45308E-3,.8533E-4,0
FLOCK 4Q-23,2023-174BD,2024-01-20T04:07:29.434080,15.15751437,.0013388,97.4784,97.0333,29.0748,331.1228,0,U,58307,999,1111,.58237E-3,.11073E-3,0
FLOCK 4Q-33,2023-174BE,2024-01-20T03:54:19.250784,15.15947093,.0012454,97.4726,96.9825,26.1213,334.0646,0,U,58308,999,1111,.54862E-3,.10482E-3,0
FLOCK 4Q-35,2023-174BF,2024-01-20T04:07:23.968416,15.15652092,.0013246,97.4773,97.0242,31.8252,328.3778,0,U,58309,999,1111,.47484E-3,.8988E-4,0
FLOCK 4Q-32,2023-174BG,2024-01-20T03:36:23.858496,15.17036013,.0012713,97.4786,97.0633,23.1110,337.0692,0,U,58310,999,1111,.13582E-2,.26929E-3,0
FLOCK 4Q-3,2023-174BJ,2024-01-20T11:25:04.237536,15.16823788,.0012097,97.4784,97.3865,23.2784,336.8994,0,U,58312,999,1116,.78976E-3,.15509E-3,0
FLOCK 4Q-20,2023-174BK,2024-01-20T04:01:47.448192,15.15832072,.001337,97.4778,97.0308,26.5230,333.6684,0,U,58313,999,1111,.56803E-3,.10823E-3,0
FLOCK 4Q-24,2023-174BL,2024-01-20T04:06:54.487872,15.15637520,.0012202,97.4719,96.9681,23.8471,336.3325,0,U,58314,999,1111,.45898E-3,.8678E-4,0
FLOCK 4Q-34,2023-174BN,2024-01-20T04:03:07.135776,15.15729593,.0012996,97.4732,96.9819,25.6705,334.5170,0,U,58316,999,1111,.72537E-3,.13803E-3,0
FLOCK 4Q-7,2023-174BQ,2024-01-20T04:02:34.599264,15.15678880,.0013209,97.4783,97.0330,24.8486,335.3380,0,U,58318,999,1111,.4419E-3,.8365E-4,0
FLOCK 4Q-15,2023-174BR,2024-01-20T03:57:15.069600,15.15855541,.0012814,97.4776,97.0319,22.7030,337.4767,0,U,58319,999,1111,.52345E-3,.9972E-4,0
FLOCK 4Q-9,2023-174BU,2024-01-20T04:00:18.934848,15.15707232,.0012541,97.4744,96.9974,22.4470,337.7309,0,U,58322,999,1111,.44788E-3,.8484E-4,0
FLOCK 4Q-10,2023-174BW,2024-01-20T04:01:13.721952,15.15708623,.0012281,97.4749,97.0020,20.8452,339.3279,0,U,58324,999,1111,.44512E-3,.8431E-4,0
FLOCK 4Q-4,2023-174BZ,2024-01-20T03:26:32.578368,15.14785113,.0011125,97.4722,96.8561,41.4523,318.7551,0,U,58327,999,1110,.46009E-3,.8489E-4,0
FLOCK 4Q-13,2023-174CA,2024-01-20T05:04:37.052544,15.14713753,.0012855,97.4789,96.9760,40.4010,319.8175,0,U,58328,999,1111,.44678E-3,.8229E-4,0
FLOCK 4Q-21,2023-174CB,2024-01-20T04:52:54.712992,15.15051176,.0012144,97.4787,96.9885,40.2605,319.9524,0,U,58329,999,1111,.5457E-3,.10162E-3,0
